{
"type": "FeatureCollection",
"name": "Block_14040706",
"crs": { "type": "name", "properties": { "name": "urn:ogc:def:crs:OGC:1.3:CRS84" } },
"features": [
{ "type": "Feature", "properties": { "id": null, "شماره بلوک": "N21", "درصد پیشرفت فیزیکی": "67", "درصد انحراف نسبت به برنامه زمان بندی": "-45", "گزارش مرحله ای": "نازک کاری", "تعداد واحد": 24, "شماره پرونده حقوقی": "-", "شماره پروانه شهرداری": "1400/17273/ص ", "تاریخ شروع پروژه": "1400-07-27", "مدت قرارداد (ماه)": "24", "آماده سازی": null, "محوطه سازی": null, "انشعاب آب": null, "انشعاب فاضلاب": null, "انشعاب برق": null, "انشعاب گاز": null, "آسانسور": null, "استاندارد آسانسور": null, "تاریخ پایان پروژه": "1402-07-27", "مدت زمان باقیمانده": "245", "تاریخ تحویل": null, "محیط": 131.4, "مساحت": 788.42, "عکس بلوک": null, "نقشه معماری": null, "نقشه سازه": null, "نقشه برق": null, "نقشه مکانیک": null, "نقشه آزمایشگاه": null }, "geometry": { "type": "Polygon", "coordinates": [ [ [ 50.701987351133035, 35.989363274217034 ], [ 50.70185831055084, 35.98926686723425 ], [ 50.702232955504464, 35.988935658543021 ], [ 50.702361996008868, 35.989032065127773 ], [ 50.701987351133035, 35.989363274217034 ] ] ] } },
{ "type": "Feature", "properties": { "id": null, "شماره بلوک": "N20", "درصد پیشرفت فیزیکی": null, "درصد انحراف نسبت به برنامه زمان بندی": null, "گزارش مرحله ای": null, "تعداد واحد": 0, "شماره پرونده حقوقی": null, "شماره پروانه شهرداری": "1400/17273/ص ", "تاریخ شروع پروژه": "1400-07-27", "مدت قرارداد (ماه)": "24", "آماده سازی": null, "محوطه سازی": null, "انشعاب آب": null, "انشعاب فاضلاب": null, "انشعاب برق": null, "انشعاب گاز": null, "آسانسور": null, "استاندارد آسانسور": null, "تاریخ پایان پروژه": "1402-07-27", "مدت زمان باقیمانده": "21", "تاریخ تحویل": null, "محیط": 131.4, "مساحت": 788.41, "عکس بلوک": null, "نقشه معماری": null, "نقشه سازه": null, "نقشه برق": null, "نقشه مکانیک": null, "نقشه آزمایشگاه": null }, "geometry": { "type": "Polygon", "coordinates": [ [ [ 50.701378814128752, 35.989901247092831 ], [ 50.701249774097356, 35.989804839465201 ], [ 50.701624424134472, 35.989473634378953 ], [ 50.701753464090174, 35.989570041058265 ], [ 50.701378814128752, 35.989901247092831 ] ] ] } },
{ "type": "Feature", "properties": { "id": null, "شماره بلوک": "N19", "درصد پیشرفت فیزیکی": null, "درصد انحراف نسبت به برنامه زمان بندی": null, "گزارش مرحله ای": null, "تعداد واحد": 0, "شماره پرونده حقوقی": null, "شماره پروانه شهرداری": "1400/17273/ص ", "تاریخ شروع پروژه": "1400-07-27", "مدت قرارداد (ماه)": "24", "آماده سازی": null, "محوطه سازی": null, "انشعاب آب": null, "انشعاب فاضلاب": null, "انشعاب برق": null, "انشعاب گاز": null, "آسانسور": null, "استاندارد آسانسور": null, "تاریخ پایان پروژه": "1402-07-27", "مدت زمان باقیمانده": "58", "تاریخ تحویل": null, "محیط": 131.4, "مساحت": 788.42, "عکس بلوک": null, "نقشه معماری": null, "نقشه سازه": null, "نقشه برق": null, "نقشه مکانیک": null, "نقشه آزمایشگاه": null }, "geometry": { "type": "Polygon", "coordinates": [ [ [ 50.702263402894246, 35.989569509868993 ], [ 50.702134361637931, 35.989473103733552 ], [ 50.702509007098108, 35.989141895293081 ], [ 50.702638047597446, 35.989238301579093 ], [ 50.702263402894246, 35.989569509868993 ] ] ] } },
{ "type": "Feature", "properties": { "id": null, "شماره بلوک": "N18", "درصد پیشرفت فیزیکی": null, "درصد انحراف نسبت به برنامه زمان بندی": null, "گزارش مرحله ای": null, "تعداد واحد": 0, "شماره پرونده حقوقی": null, "شماره پروانه شهرداری": "1400/17273/ص ", "تاریخ شروع پروژه": "1400-07-27", "مدت قرارداد (ماه)": "24", "آماده سازی": null, "محوطه سازی": null, "انشعاب آب": null, "انشعاب فاضلاب": null, "انشعاب برق": null, "انشعاب گاز": null, "آسانسور": null, "استاندارد آسانسور": null, "تاریخ پایان پروژه": "1402-07-27", "مدت زمان باقیمانده": "1", "تاریخ تحویل": null, "محیط": 131.4, "مساحت": 788.42, "عکس بلوک": null, "نقشه معماری": null, "نقشه سازه": null, "نقشه برق": null, "نقشه مکانیک": null, "نقشه آزمایشگاه": null }, "geometry": { "type": "Polygon", "coordinates": [ [ [ 50.70165486615403, 35.990107485778744 ], [ 50.701525823419217, 35.990011078443104 ], [ 50.701900475327513, 35.989679870859554 ], [ 50.702029516630319, 35.989776277793773 ], [ 50.70165486615403, 35.990107485778744 ] ] ] } },
{ "type": "Feature", "properties": { "id": null, "شماره بلوک": "N17", "درصد پیشرفت فیزیکی": null, "درصد انحراف نسبت به برنامه زمان بندی": null, "گزارش مرحله ای": null, "تعداد واحد": 0, "شماره پرونده حقوقی": null, "شماره پروانه شهرداری": "1400/17273/ص ", "تاریخ شروع پروژه": "1400-07-27", "مدت قرارداد (ماه)": "24", "آماده سازی": null, "محوطه سازی": null, "انشعاب آب": null, "انشعاب فاضلاب": null, "انشعاب برق": null, "انشعاب گاز": null, "آسانسور": null, "استاندارد آسانسور": null, "تاریخ پایان پروژه": "1402-07-27", "مدت زمان باقیمانده": "-542", "تاریخ تحویل": null, "محیط": 82.0, "مساحت": 398.16, "عکس بلوک": null, "نقشه معماری": null, "نقشه سازه": null, "نقشه برق": null, "نقشه مکانیک": null, "نقشه آزمایشگاه": null }, "geometry": { "type": "Polygon", "coordinates": [ [ [ 50.70282105848294, 35.989527524296427 ], [ 50.702692016613931, 35.989431118206959 ], [ 50.702881214889416, 35.989263853009227 ], [ 50.703010256719125, 35.989360258897676 ], [ 50.70282105848294, 35.989527524296427 ] ] ] } },
{ "type": "Feature", "properties": { "id": null, "شماره بلوک": "N16", "درصد پیشرفت فیزیکی": null, "درصد انحراف نسبت به برنامه زمان بندی": null, "گزارش مرحله ای": null, "تعداد واحد": 0, "شماره پرونده حقوقی": null, "شماره پروانه شهرداری": "1400/17273/ص ", "تاریخ شروع پروژه": "1400-07-27", "مدت قرارداد (ماه)": "24", "آماده سازی": null, "محوطه سازی": null, "انشعاب آب": null, "انشعاب فاضلاب": null, "انشعاب برق": null, "انشعاب گاز": null, "آسانسور": null, "استاندارد آسانسور": null, "تاریخ پایان پروژه": "1402-07-27", "مدت زمان باقیمانده": "41", "تاریخ تحویل": null, "محیط": 131.4, "مساحت": 788.42, "عکس بلوک": null, "نقشه معماری": null, "نقشه سازه": null, "نقشه برق": null, "نقشه مکانیک": null, "نقشه آزمایشگاه": null }, "geometry": { "type": "Polygon", "coordinates": [ [ [ 50.702397962230087, 35.989901565155051 ], [ 50.702268920950331, 35.989805158617756 ], [ 50.702643566751803, 35.989473950328779 ], [ 50.702772610670458, 35.989570354273624 ], [ 50.702397962230087, 35.989901565155051 ] ] ] } },
{ "type": "Feature", "properties": { "id": null, "شماره بلوک": "N15", "درصد پیشرفت فیزیکی": null, "درصد انحراف نسبت به برنامه زمان بندی": null, "گزارش مرحله ای": null, "تعداد واحد": 0, "شماره پرونده حقوقی": null, "شماره پروانه شهرداری": "1400/17273/ص ", "تاریخ شروع پروژه": "1400-07-27", "مدت قرارداد (ماه)": "24", "آماده سازی": null, "محوطه سازی": null, "انشعاب آب": null, "انشعاب فاضلاب": null, "انشعاب برق": null, "انشعاب گاز": null, "آسانسور": null, "استاندارد آسانسور": null, "تاریخ پایان پروژه": "1402-07-27", "مدت زمان باقیمانده": "302", "تاریخ تحویل": null, "محیط": 131.4, "مساحت": 788.42, "عکس بلوک": null, "نقشه معماری": null, "نقشه سازه": null, "نقشه برق": null, "نقشه مکانیک": null, "نقشه آزمایشگاه": null }, "geometry": { "type": "Polygon", "coordinates": [ [ [ 50.701930902065854, 35.990313709478059 ], [ 50.701801860688271, 35.990217302994807 ], [ 50.702176510394693, 35.989886095655308 ], [ 50.702305552369523, 35.989982502292477 ], [ 50.701930902065854, 35.990313709478059 ] ] ] } },
{ "type": "Feature", "properties": { "id": null, "شماره بلوک": "N14", "درصد پیشرفت فیزیکی": null, "درصد انحراف نسبت به برنامه زمان بندی": null, "گزارش مرحله ای": null, "تعداد واحد": 0, "شماره پرونده حقوقی": null, "شماره پروانه شهرداری": "1400/17273/ص ", "تاریخ شروع پروژه": "1400-07-27", "مدت قرارداد (ماه)": "24", "آماده سازی": null, "محوطه سازی": null, "انشعاب آب": null, "انشعاب فاضلاب": null, "انشعاب برق": null, "انشعاب گاز": null, "آسانسور": null, "استاندارد آسانسور": null, "تاریخ پایان پروژه": "1402-07-27", "مدت زمان باقیمانده": "71", "تاریخ تحویل": null, "محیط": 82.0, "مساحت": 398.16, "عکس بلوک": null, "نقشه معماری": null, "نقشه سازه": null, "نقشه برق": null, "نقشه مکانیک": null, "نقشه آزمایشگاه": null }, "geometry": { "type": "Polygon", "coordinates": [ [ [ 50.703115780225843, 35.989716468503595 ], [ 50.702986737689926, 35.989620062731035 ], [ 50.70317593579442, 35.989452798723832 ], [ 50.703304980322351, 35.98954920430041 ], [ 50.703115780225843, 35.989716468503595 ] ] ] } },
{ "type": "Feature", "properties": { "id": null, "شماره بلوک": "N13", "درصد پیشرفت فیزیکی": null, "درصد انحراف نسبت به برنامه زمان بندی": null, "گزارش مرحله ای": null, "تعداد واحد": 0, "شماره پرونده حقوقی": null, "شماره پروانه شهرداری": "1400/17273/ص ", "تاریخ شروع پروژه": "1400-07-27", "مدت قرارداد (ماه)": "24", "آماده سازی": null, "محوطه سازی": null, "انشعاب آب": null, "انشعاب فاضلاب": null, "انشعاب برق": null, "انشعاب گاز": null, "آسانسور": null, "استاندارد آسانسور": null, "تاریخ پایان پروژه": "1402-07-27", "مدت زمان باقیمانده": "63", "تاریخ تحویل": null, "محیط": 131.4, "مساحت": 788.42, "عکس بلوک": null, "نقشه معماری": null, "نقشه سازه": null, "نقشه برق": null, "نقشه مکانیک": null, "نقشه آزمایشگاه": null }, "geometry": { "type": "Polygon", "coordinates": [ [ [ 50.702673550433644, 35.99010742890782 ], [ 50.702544505774533, 35.990011022660369 ], [ 50.702919151409723, 35.989679813521342 ], [ 50.703048195991009, 35.989776219370739 ], [ 50.702673550433644, 35.99010742890782 ] ] ] } },
{ "type": "Feature", "properties": { "id": null, "شماره بلوک": "N12", "درصد پیشرفت فیزیکی": null, "درصد انحراف نسبت به برنامه زمان بندی": null, "گزارش مرحله ای": null, "تعداد واحد": 0, "شماره پرونده حقوقی": null, "شماره پروانه شهرداری": "1400/17273/ص ", "تاریخ شروع پروژه": "1400-07-27", "مدت قرارداد (ماه)": "24", "آماده سازی": null, "محوطه سازی": null, "انشعاب آب": null, "انشعاب فاضلاب": null, "انشعاب برق": null, "انشعاب گاز": null, "آسانسور": null, "استاندارد آسانسور": null, "تاریخ پایان پروژه": "1402-07-27", "مدت زمان باقیمانده": "5", "تاریخ تحویل": null, "محیط": 131.4, "مساحت": 788.42, "عکس بلوک": null, "نقشه معماری": null, "نقشه سازه": null, "نقشه برق": null, "نقشه مکانیک": null, "نقشه آزمایشگاه": null }, "geometry": { "type": "Polygon", "coordinates": [ [ [ 50.702206942109228, 35.990519936400666 ], [ 50.702077899384555, 35.9904235296625 ], [ 50.702452548922501, 35.990092322021809 ], [ 50.702581593606915, 35.990188726716106 ], [ 50.702206942109228, 35.990519936400666 ] ] ] } },
{ "type": "Feature", "properties": { "id": null, "شماره بلوک": "N11", "درصد پیشرفت فیزیکی": null, "درصد انحراف نسبت به برنامه زمان بندی": null, "گزارش مرحله ای": null, "تعداد واحد": 0, "شماره پرونده حقوقی": null, "شماره پروانه شهرداری": "1400/17273/ص ", "تاریخ شروع پروژه": "1400-07-27", "مدت قرارداد (ماه)": "24", "آماده سازی": null, "محوطه سازی": null, "انشعاب آب": null, "انشعاب فاضلاب": null, "انشعاب برق": null, "انشعاب گاز": null, "آسانسور": null, "استاندارد آسانسور": null, "تاریخ پایان پروژه": "1402-07-27", "مدت زمان باقیمانده": "76", "تاریخ تحویل": null, "محیط": 131.4, "مساحت": 788.42, "عکس بلوک": null, "نقشه معماری": null, "نقشه سازه": null, "نقشه برق": null, "نقشه مکانیک": null, "نقشه آزمایشگاه": null }, "geometry": { "type": "Polygon", "coordinates": [ [ [ 50.70357058421245, 35.989554159702834 ], [ 50.703699629387764, 35.989650564856319 ], [ 50.703324985105404, 35.989981776445234 ], [ 50.703195941883578, 35.989885370898726 ], [ 50.70357058421245, 35.989554159702834 ] ] ] } },
{ "type": "Feature", "properties": { "id": null, "شماره بلوک": "N10", "درصد پیشرفت فیزیکی": null, "درصد انحراف نسبت به برنامه زمان بندی": null, "گزارش مرحله ای": null, "تعداد واحد": 0, "شماره پرونده حقوقی": null, "شماره پروانه شهرداری": "1400/17273/ص ", "تاریخ شروع پروژه": "1400-07-27", "مدت قرارداد (ماه)": "24", "آماده سازی": null, "محوطه سازی": null, "انشعاب آب": null, "انشعاب فاضلاب": null, "انشعاب برق": null, "انشعاب گاز": null, "آسانسور": null, "استاندارد آسانسور": null, "تاریخ پایان پروژه": "1402-07-27", "مدت زمان باقیمانده": "0", "تاریخ تحویل": null, "محیط": 131.4, "مساحت": 788.42, "عکس بلوک": null, "نقشه معماری": null, "نقشه سازه": null, "نقشه برق": null, "نقشه مکانیک": null, "نقشه آزمایشگاه": null }, "geometry": { "type": "Polygon", "coordinates": [ [ [ 50.703324234404178, 35.989982439887264 ], [ 50.702949589005044, 35.990313652476928 ], [ 50.702820543673887, 35.990217246526548 ], [ 50.703195191859315, 35.98988603434163 ], [ 50.703324234404178, 35.989982439887264 ] ] ] } },
{ "type": "Feature", "properties": { "id": null, "شماره بلوک": "N9", "درصد پیشرفت فیزیکی": null, "درصد انحراف نسبت به برنامه زمان بندی": null, "گزارش مرحله ای": null, "تعداد واحد": 0, "شماره پرونده حقوقی": null, "شماره پروانه شهرداری": "1400/17273/ص ", "تاریخ شروع پروژه": "1400-07-27", "مدت قرارداد (ماه)": "24", "آماده سازی": null, "محوطه سازی": null, "انشعاب آب": null, "انشعاب فاضلاب": null, "انشعاب برق": null, "انشعاب گاز": null, "آسانسور": null, "استاندارد آسانسور": null, "تاریخ پایان پروژه": "1402-07-27", "مدت زمان باقیمانده": "630", "تاریخ تحویل": null, "محیط": 131.4, "مساحت": 788.43, "عکس بلوک": null, "نقشه معماری": null, "نقشه سازه": null, "نقشه برق": null, "نقشه مکانیک": null, "نقشه آزمایشگاه": null }, "geometry": { "type": "Polygon", "coordinates": [ [ [ 50.702482976168767, 35.990726155515674 ], [ 50.702353930740699, 35.99062974906952 ], [ 50.702728580795529, 35.990298538928201 ], [ 50.702857625468653, 35.990394944974611 ], [ 50.702482976168767, 35.990726155515674 ] ] ] } },
{ "type": "Feature", "properties": { "id": null, "شماره بلوک": "N8", "درصد پیشرفت فیزیکی": null, "درصد انحراف نسبت به برنامه زمان بندی": null, "گزارش مرحله ای": null, "تعداد واحد": 0, "شماره پرونده حقوقی": null, "شماره پروانه شهرداری": "1400/17273/ص ", "تاریخ شروع پروژه": "1400-07-27", "مدت قرارداد (ماه)": "24", "آماده سازی": null, "محوطه سازی": null, "انشعاب آب": null, "انشعاب فاضلاب": null, "انشعاب برق": null, "انشعاب گاز": null, "آسانسور": null, "استاندارد آسانسور": null, "تاریخ پایان پروژه": "1402-07-27", "مدت زمان باقیمانده": "57", "تاریخ تحویل": null, "محیط": 131.4, "مساحت": 788.42, "عکس بلوک": null, "نقشه معماری": null, "نقشه سازه": null, "نقشه برق": null, "نقشه مکانیک": null, "نقشه آزمایشگاه": null }, "geometry": { "type": "Polygon", "coordinates": [ [ [ 50.703656099921098, 35.990139309711722 ], [ 50.703527056038688, 35.990042904520806 ], [ 50.703901697746559, 35.989711690645763 ], [ 50.704030741553161, 35.989808094888367 ], [ 50.703656099921098, 35.990139309711722 ] ] ] } },
{ "type": "Feature", "properties": { "id": null, "شماره بلوک": "N7", "درصد پیشرفت فیزیکی": "67.28", "درصد انحراف نسبت به برنامه زمان بندی": "-45.2", "گزارش مرحله ای": "نازک کاری", "تعداد واحد": 48, "شماره پرونده حقوقی": null, "شماره پروانه شهرداری": "1400/17273/ص ", "تاریخ شروع پروژه": "1400-07-27", "مدت قرارداد (ماه)": "24", "آماده سازی": "ندارد", "محوطه سازی": "ندارد", "انشعاب آب": "ندارد", "انشعاب فاضلاب": "ندارد", "انشعاب برق": "ندارد", "انشعاب گاز": "ندارد", "آسانسور": "ندارد", "استاندارد آسانسور": "ندارد", "تاریخ پایان پروژه": "1402-07-28", "مدت زمان باقیمانده": "32", "تاریخ تحویل": null, "محیط": 131.4, "مساحت": 788.42, "عکس بلوک": "<div><a href=\"https://drive.google.com/file/d/17rVeimn40_oWzgXACP-NIVZWVo9f90IZ/view?usp=drive_link\" target=\"_blank\" style=\"font-family: 'tahoma';\">عکس بلوک</div>", "نقشه معماری": "<div dir=\"rtl\"> <a href=\"https://drive.google.com/file/d/1RI8DRSnLr5ZFjB3JJNS7f9IT7-nnqZ1r/view?usp=drive_link\"  target=\"_blank\" style=\"font-family: 'tahoma';\">نقشه معماری</br></a>", "نقشه سازه": "<div><a href=\"https://docs.google.com/spreadsheets/d/1a2PxunrbgHNcRM6ovTWUFGyrKbWP2SSX/edit?usp=drive_link&ouid=111809335695775432331&rtpof=true&sd=true\" \ntarget=\"_blank\" style=\"font-family: 'tahoma';\">نقشه سازه</div>", "نقشه برق": "<div><a href=\"https://drive.google.com/file/d/1RI8DRSnLr5ZFjB3JJNS7f9IT7-nnqZ1r/view?usp=drive_link\" target=\"_blank\" style=\"font-family: 'tahoma';\">نقشه برق</div>", "نقشه مکانیک": "<div><a href=\"https://docs.google.com/spreadsheets/d/1lwMLql1PRiYR7FqYhx6NyyoEqyteqdbZ9dx1jLTENDc/edit?usp=drive_link\" \ntarget=\"_blank\" style=\"font-family: 'tahoma';\">نقشه مکانیک</div>", "نقشه آزمایشگاه": "<div><a href=\"https://docs.google.com/spreadsheets/d/1lwMLql1PRiYR7FqYhx6NyyoEqyteqdbZ9dx1jLTENDc/edit?usp=drive_link\" \ntarget=\"_blank\" style=\"font-family: 'tahoma';\">نقشه آزمایشگاه</div>" }, "geometry": { "type": "Polygon", "coordinates": [ [ [ 50.703225635814064, 35.990519867723378 ], [ 50.703096591842218, 35.9904234620751 ], [ 50.703471237821489, 35.990092251234792 ], [ 50.703600283069726, 35.990188656488364 ], [ 50.703225635814064, 35.990519867723378 ] ] ] } },
{ "type": "Feature", "properties": { "id": null, "شماره بلوک": "N6", "درصد پیشرفت فیزیکی": null, "درصد انحراف نسبت به برنامه زمان بندی": null, "گزارش مرحله ای": null, "تعداد واحد": 0, "شماره پرونده حقوقی": null, "شماره پروانه شهرداری": "1400/17273/ص ", "تاریخ شروع پروژه": "1400-07-27", "مدت قرارداد (ماه)": "24", "آماده سازی": null, "محوطه سازی": null, "انشعاب آب": null, "انشعاب فاضلاب": null, "انشعاب برق": null, "انشعاب گاز": null, "آسانسور": null, "استاندارد آسانسور": null, "تاریخ پایان پروژه": "1402-07-27", "مدت زمان باقیمانده": "95", "تاریخ تحویل": null, "محیط": 131.4, "مساحت": 788.42, "عکس بلوک": null, "نقشه معماری": null, "نقشه سازه": null, "نقشه برق": null, "نقشه مکانیک": null, "نقشه آزمایشگاه": null }, "geometry": { "type": "Polygon", "coordinates": [ [ [ 50.702759021098075, 35.990932386675247 ], [ 50.702629977029289, 35.990835980531209 ], [ 50.703004626242603, 35.990504768986419 ], [ 50.703133672264919, 35.990601174737435 ], [ 50.702759021098075, 35.990932386675247 ] ] ] } },
{ "type": "Feature", "properties": { "id": null, "شماره بلوک": "N5", "درصد پیشرفت فیزیکی": null, "درصد انحراف نسبت به برنامه زمان بندی": null, "گزارش مرحله ای": null, "تعداد واحد": 0, "شماره پرونده حقوقی": null, "شماره پروانه شهرداری": "1400/17273/ص ", "تاریخ شروع پروژه": "1400-07-27", "مدت قرارداد (ماه)": "24", "آماده سازی": null, "محوطه سازی": null, "انشعاب آب": null, "انشعاب فاضلاب": null, "انشعاب برق": null, "انشعاب گاز": null, "آسانسور": null, "استاندارد آسانسور": null, "تاریخ پایان پروژه": "1402-07-27", "مدت زمان باقیمانده": "50", "تاریخ تحویل": null, "محیط": 131.4, "مساحت": 788.42, "عکس بلوک": null, "نقشه معماری": null, "نقشه سازه": null, "نقشه برق": null, "نقشه مکانیک": null, "نقشه آزمایشگاه": null }, "geometry": { "type": "Polygon", "coordinates": [ [ [ 50.703943901702729, 35.990335132093236 ], [ 50.703814857144557, 35.990238728862728 ], [ 50.704189499264622, 35.989907514100139 ], [ 50.704318545092981, 35.990003918586794 ], [ 50.703943901702729, 35.990335132093236 ] ] ] } },
{ "type": "Feature", "properties": { "id": null, "شماره بلوک": "N4", "درصد پیشرفت فیزیکی": null, "درصد انحراف نسبت به برنامه زمان بندی": null, "گزارش مرحله ای": null, "تعداد واحد": 0, "شماره پرونده حقوقی": null, "شماره پروانه شهرداری": "1400/17273/ص ", "تاریخ شروع پروژه": "1400-07-27", "مدت قرارداد (ماه)": "24", "آماده سازی": null, "محوطه سازی": null, "انشعاب آب": null, "انشعاب فاضلاب": null, "انشعاب برق": null, "انشعاب گاز": null, "آسانسور": null, "استاندارد آسانسور": null, "تاریخ پایان پروژه": "1402-07-27", "مدت زمان باقیمانده": "46", "تاریخ تحویل": null, "محیط": 131.4, "مساحت": 788.43, "عکس بلوک": null, "نقشه معماری": null, "نقشه سازه": null, "نقشه برق": null, "نقشه مکانیک": null, "نقشه آزمایشگاه": null }, "geometry": { "type": "Polygon", "coordinates": [ [ [ 50.703501686083776, 35.990726084540476 ], [ 50.703372639408514, 35.990629679184252 ], [ 50.703747284550282, 35.990298465839928 ], [ 50.703876331147669, 35.990394870798099 ], [ 50.703501686083776, 35.990726084540476 ] ] ] } },
{ "type": "Feature", "properties": { "id": null, "شماره بلوک": "N3", "درصد پیشرفت فیزیکی": null, "درصد انحراف نسبت به برنامه زمان بندی": null, "گزارش مرحله ای": null, "تعداد واحد": 0, "شماره پرونده حقوقی": null, "شماره پروانه شهرداری": "1400/17273/ص ", "تاریخ شروع پروژه": "1400-07-27", "مدت قرارداد (ماه)": "24", "آماده سازی": null, "محوطه سازی": null, "انشعاب آب": null, "انشعاب فاضلاب": null, "انشعاب برق": null, "انشعاب گاز": null, "آسانسور": null, "استاندارد آسانسور": null, "تاریخ پایان پروژه": "1402-07-27", "مدت زمان باقیمانده": "73", "تاریخ تحویل": null, "محیط": 131.4, "مساحت": 788.42, "عکس بلوک": null, "نقشه معماری": null, "نقشه سازه": null, "نقشه برق": null, "نقشه مکانیک": null, "نقشه آزمایشگاه": null }, "geometry": { "type": "Polygon", "coordinates": [ [ [ 50.703035062772649, 35.991138604531081 ], [ 50.702906018025615, 35.991042200334967 ], [ 50.703280667070366, 35.990710988488978 ], [ 50.703409713766796, 35.990807393392636 ], [ 50.703035062772649, 35.991138604531081 ] ] ] } },
{ "type": "Feature", "properties": { "id": null, "شماره بلوک": "N2", "درصد پیشرفت فیزیکی": null, "درصد انحراف نسبت به برنامه زمان بندی": null, "گزارش مرحله ای": null, "تعداد واحد": 0, "شماره پرونده حقوقی": null, "شماره پروانه شهرداری": "1400/17273/ص ", "تاریخ شروع پروژه": "1400-07-27", "مدت قرارداد (ماه)": "24", "آماده سازی": null, "محوطه سازی": null, "انشعاب آب": null, "انشعاب فاضلاب": null, "انشعاب برق": null, "انشعاب گاز": null, "آسانسور": null, "استاندارد آسانسور": null, "تاریخ پایان پروژه": "1402-07-27", "مدت زمان باقیمانده": "91", "تاریخ تحویل": null, "محیط": 131.4, "مساحت": 788.42, "عکس بلوک": null, "نقشه معماری": null, "نقشه سازه": null, "نقشه برق": null, "نقشه مکانیک": null, "نقشه آزمایشگاه": null }, "geometry": { "type": "Polygon", "coordinates": [ [ [ 50.704291929294861, 35.990477720439856 ], [ 50.704162882054426, 35.990381315927053 ], [ 50.704537524753917, 35.990050101736067 ], [ 50.704666569885127, 35.990146505845807 ], [ 50.704291929294861, 35.990477720439856 ] ] ] } },
{ "type": "Feature", "properties": { "id": null, "شماره بلوک": "N1", "درصد پیشرفت فیزیکی": null, "درصد انحراف نسبت به برنامه زمان بندی": null, "گزارش مرحله ای": null, "تعداد واحد": 0, "شماره پرونده حقوقی": null, "شماره پروانه شهرداری": "1400/17273/ص ", "تاریخ شروع پروژه": "1400-07-27", "مدت قرارداد (ماه)": "24", "آماده سازی": null, "محوطه سازی": null, "انشعاب آب": null, "انشعاب فاضلاب": null, "انشعاب برق": null, "انشعاب گاز": null, "آسانسور": null, "استاندارد آسانسور": null, "تاریخ پایان پروژه": "1402-07-27", "مدت زمان باقیمانده": "25", "تاریخ تحویل": null, "محیط": 82.0, "مساحت": 398.16, "عکس بلوک": null, "نقشه معماری": null, "نقشه سازه": null, "نقشه برق": null, "نقشه مکانیک": null, "نقشه آزمایشگاه": null }, "geometry": { "type": "Polygon", "coordinates": [ [ [ 50.704030645054068, 35.990708233472162 ], [ 50.703901597760101, 35.990611828681743 ], [ 50.7040907963246, 35.990444563811785 ], [ 50.704219843581292, 35.990540967850897 ], [ 50.704030645054068, 35.990708233472162 ] ] ] } }
]
}
