{
  "type": "FeatureCollection",
  "features": [
    {
      "type": "Feature",
      "geometry": {
        "type": "Polygon",
        "coordinates": [
          [
            [
              50.701987351133035,
              35.989363274217034
            ],
            [
              50.70185831055084,
              35.98926686723425
            ],
            [
              50.70223295550446,
              35.98893565854302
            ],
            [
              50.70236199600887,
              35.98903206512777
            ],
            [
              50.701987351133035,
              35.989363274217034
            ]
          ]
        ]
      },
      "properties": {
        "id": null,
        "شماره بلوک": "N21",
        "درصد پیشرفت فیزیکی": "67",
        "درصد انحراف نسبت به برنامه زمان بندی": "-45",
        "میزان پیشرفت مالی": "۳۴۶.۵۶۴.۶۵۴.۷۸۲",
        "گزارش مرحله ای": "نازک کاری",
        "تعداد واحد": 24,
        "شماره پرونده حقوقی": "-",
        "شماره پروانه شهرداری": "1400/17273/ص ",
        "تاریخ شروع پروژه": "1400-07-27",
        "مدت قرارداد (ماه)": "24",
        "تاریخ پایان پروژه": "1404-07-27",
        "مدت زمان باقیمانده": -547,
        "تاریخ تحویل": null,
        "نام پیمانکار": "نیک پی سرای ایرانیان",
        "محیط": 131.3999860472204,
        "مساحت": 788.419110622257,
        "پیوست ها": "<div dir=\"rtl\"><a href= \"https://drive.google.com/file/d/1RI8DRSnLr5ZFjB3JJNS7f9IT7-nnqZ1r/view?usp=drive_link\" target=\"_blank\" style=\"font-family: 'tahoma';\">عکس بلوک</br></a>\n<a href= \n\"https://docs.google.com/spreadsheets/d/1lwMLql1PRiYR7FqYhx6NyyoEqyteqdbZ9dx1jLTENDc/edit?usp=drive_link\" \ntarget=\"_blank\" style=\"font-family: 'tahoma';\">نقشه معماری</br></a>\n<a href= \n\"https://docs.google.com/spreadsheets/d/1lwMLql1PRiYR7FqYhx6NyyoEqyteqdbZ9dx1jLTENDc/edit?usp=drive_link\" \ntarget=\"_blank\" style=\"font-family: 'tahoma';\">نقشه سازه</br></a>\n<a href= \"https://drive.google.com/file/d/1RI8DRSnLr5ZFjB3JJNS7f9IT7-nnqZ1r/view?usp=drive_link\" target=\"_blank\" style=\"font-family: 'tahoma';\">نقشه برق</br></a>\n<a href= \n\"https://docs.google.com/spreadsheets/d/1lwMLql1PRiYR7FqYhx6NyyoEqyteqdbZ9dx1jLTENDc/edit?usp=drive_link\" \ntarget=\"_blank\" style=\"font-family: 'tahoma';\">نقشه مکانیک</br></a>\n<a href= \n\"https://docs.google.com/spreadsheets/d/1lwMLql1PRiYR7FqYhx6NyyoEqyteqdbZ9dx1jLTENDc/edit?usp=drive_link\" \ntarget=\"_blank\" style=\"font-family: 'tahoma';\">نقشه آزمایشگاه</br></a></div>"
      },
      "id": "2mBVF"
    },
    {
      "type": "Feature",
      "geometry": {
        "type": "Polygon",
        "coordinates": [
          [
            [
              50.70137881412875,
              35.98990124709283
            ],
            [
              50.701249774097356,
              35.9898048394652
            ],
            [
              50.70162442413447,
              35.98947363437895
            ],
            [
              50.701753464090174,
              35.989570041058265
            ],
            [
              50.70137881412875,
              35.98990124709283
            ]
          ]
        ]
      },
      "properties": {
        "id": null,
        "شماره بلوک": "N20",
        "درصد پیشرفت فیزیکی": null,
        "درصد انحراف نسبت به برنامه زمان بندی": null,
        "میزان پیشرفت مالی": null,
        "گزارش مرحله ای": null,
        "تعداد واحد": 0,
        "شماره پرونده حقوقی": null,
        "شماره پروانه شهرداری": "1400/17273/ص ",
        "تاریخ شروع پروژه": "1400-07-27",
        "مدت قرارداد (ماه)": "24",
        "تاریخ پایان پروژه": "1404-07-27",
        "مدت زمان باقیمانده": null,
        "تاریخ تحویل": null,
        "نام پیمانکار": "نیک پی سرای ایرانیان",
        "محیط": 131.3996294598894,
        "مساحت": 788.4140551239252,
        "پیوست ها": null
      },
      "id": "70Yq0"
    },
    {
      "type": "Feature",
      "geometry": {
        "type": "Polygon",
        "coordinates": [
          [
            [
              50.702263402894246,
              35.98956950986899
            ],
            [
              50.70213436163793,
              35.98947310373355
            ],
            [
              50.70250900709811,
              35.98914189529308
            ],
            [
              50.702638047597446,
              35.98923830157909
            ],
            [
              50.702263402894246,
              35.98956950986899
            ]
          ]
        ]
      },
      "properties": {
        "id": null,
        "شماره بلوک": "N19",
        "درصد پیشرفت فیزیکی": null,
        "درصد انحراف نسبت به برنامه زمان بندی": null,
        "میزان پیشرفت مالی": null,
        "گزارش مرحله ای": null,
        "تعداد واحد": 0,
        "شماره پرونده حقوقی": null,
        "شماره پروانه شهرداری": "1400/17273/ص ",
        "تاریخ شروع پروژه": "1400-07-27",
        "مدت قرارداد (ماه)": "24",
        "تاریخ پایان پروژه": "1404-07-27",
        "مدت زمان باقیمانده": null,
        "تاریخ تحویل": null,
        "نام پیمانکار": "نیک پی سرای ایرانیان",
        "محیط": 131.39971568884386,
        "مساحت": 788.4155045989901,
        "پیوست ها": null
      },
      "id": "zDCM3"
    },
    {
      "type": "Feature",
      "geometry": {
        "type": "Polygon",
        "coordinates": [
          [
            [
              50.70165486615403,
              35.99010748577874
            ],
            [
              50.70152582341922,
              35.9900110784431
            ],
            [
              50.70190047532751,
              35.989679870859554
            ],
            [
              50.70202951663032,
              35.98977627779377
            ],
            [
              50.70165486615403,
              35.99010748577874
            ]
          ]
        ]
      },
      "properties": {
        "id": null,
        "شماره بلوک": "N18",
        "درصد پیشرفت فیزیکی": null,
        "درصد انحراف نسبت به برنامه زمان بندی": null,
        "میزان پیشرفت مالی": null,
        "گزارش مرحله ای": null,
        "تعداد واحد": 0,
        "شماره پرونده حقوقی": null,
        "شماره پروانه شهرداری": "1400/17273/ص ",
        "تاریخ شروع پروژه": "1400-07-27",
        "مدت قرارداد (ماه)": "24",
        "تاریخ پایان پروژه": "1404-07-27",
        "مدت زمان باقیمانده": 21,
        "تاریخ تحویل": null,
        "نام پیمانکار": "نیک پی سرای ایرانیان",
        "محیط": 131.4002408436756,
        "مساحت": 788.4226600602269,
        "پیوست ها": null
      },
      "id": "3O6AS"
    },
    {
      "type": "Feature",
      "geometry": {
        "type": "Polygon",
        "coordinates": [
          [
            [
              50.70282105848294,
              35.98952752429643
            ],
            [
              50.70269201661393,
              35.98943111820696
            ],
            [
              50.702881214889416,
              35.98926385300923
            ],
            [
              50.703010256719125,
              35.989360258897676
            ],
            [
              50.70282105848294,
              35.98952752429643
            ]
          ]
        ]
      },
      "properties": {
        "id": null,
        "شماره بلوک": "N17",
        "درصد پیشرفت فیزیکی": null,
        "درصد انحراف نسبت به برنامه زمان بندی": null,
        "میزان پیشرفت مالی": null,
        "گزارش مرحله ای": null,
        "تعداد واحد": 0,
        "شماره پرونده حقوقی": null,
        "شماره پروانه شهرداری": "1400/17273/ص ",
        "تاریخ شروع پروژه": "1400-07-27",
        "مدت قرارداد (ماه)": "24",
        "تاریخ پایان پروژه": "1404-07-27",
        "مدت زمان باقیمانده": 28,
        "تاریخ تحویل": null,
        "نام پیمانکار": "نیک پی سرای ایرانیان",
        "محیط": 81.99999684887922,
        "مساحت": 398.1597603186965,
        "پیوست ها": null
      },
      "id": "Ov25H"
    },
    {
      "type": "Feature",
      "geometry": {
        "type": "Polygon",
        "coordinates": [
          [
            [
              50.70239796223009,
              35.98990156515505
            ],
            [
              50.70226892095033,
              35.989805158617756
            ],
            [
              50.7026435667518,
              35.98947395032878
            ],
            [
              50.70277261067046,
              35.989570354273624
            ],
            [
              50.70239796223009,
              35.98990156515505
            ]
          ]
        ]
      },
      "properties": {
        "id": null,
        "شماره بلوک": "N16",
        "درصد پیشرفت فیزیکی": null,
        "درصد انحراف نسبت به برنامه زمان بندی": null,
        "میزان پیشرفت مالی": null,
        "گزارش مرحله ای": null,
        "تعداد واحد": 0,
        "شماره پرونده حقوقی": null,
        "شماره پروانه شهرداری": "1400/17273/ص ",
        "تاریخ شروع پروژه": "1400-07-27",
        "مدت قرارداد (ماه)": "24",
        "تاریخ پایان پروژه": "1404-07-27",
        "مدت زمان باقیمانده": null,
        "تاریخ تحویل": null,
        "نام پیمانکار": "نیک پی سرای ایرانیان",
        "محیط": 131.39998604910664,
        "مساحت": 788.4178394116461,
        "پیوست ها": null
      },
      "id": "qai2c"
    },
    {
      "type": "Feature",
      "geometry": {
        "type": "Polygon",
        "coordinates": [
          [
            [
              50.701930902065854,
              35.99031370947806
            ],
            [
              50.70180186068827,
              35.99021730299481
            ],
            [
              50.70217651039469,
              35.98988609565531
            ],
            [
              50.70230555236952,
              35.98998250229248
            ],
            [
              50.701930902065854,
              35.99031370947806
            ]
          ]
        ]
      },
      "properties": {
        "id": null,
        "شماره بلوک": "N15",
        "درصد پیشرفت فیزیکی": null,
        "درصد انحراف نسبت به برنامه زمان بندی": null,
        "میزان پیشرفت مالی": null,
        "گزارش مرحله ای": null,
        "تعداد واحد": 0,
        "شماره پرونده حقوقی": null,
        "شماره پروانه شهرداری": "1400/17273/ص ",
        "تاریخ شروع پروژه": "1400-07-27",
        "مدت قرارداد (ماه)": "24",
        "تاریخ پایان پروژه": "1404-07-27",
        "مدت زمان باقیمانده": 82,
        "تاریخ تحویل": null,
        "نام پیمانکار": "نیک پی سرای ایرانیان",
        "محیط": 131.39971568876362,
        "مساحت": 788.4155045989901,
        "پیوست ها": null
      },
      "id": "zJOvf"
    },
    {
      "type": "Feature",
      "geometry": {
        "type": "Polygon",
        "coordinates": [
          [
            [
              50.70311578022584,
              35.989716468503595
            ],
            [
              50.702986737689926,
              35.989620062731035
            ],
            [
              50.70317593579442,
              35.98945279872383
            ],
            [
              50.70330498032235,
              35.98954920430041
            ],
            [
              50.70311578022584,
              35.989716468503595
            ]
          ]
        ]
      },
      "properties": {
        "id": null,
        "شماره بلوک": "N14",
        "درصد پیشرفت فیزیکی": null,
        "درصد انحراف نسبت به برنامه زمان بندی": null,
        "میزان پیشرفت مالی": null,
        "گزارش مرحله ای": null,
        "تعداد واحد": 0,
        "شماره پرونده حقوقی": null,
        "شماره پروانه شهرداری": "1400/17273/ص ",
        "تاریخ شروع پروژه": "1400-07-27",
        "مدت قرارداد (ماه)": "24",
        "تاریخ پایان پروژه": "1404-07-27",
        "مدت زمان باقیمانده": null,
        "تاریخ تحویل": null,
        "نام پیمانکار": "نیک پی سرای ایرانیان",
        "محیط": 81.99998517800577,
        "مساحت": 398.1603034604341,
        "پیوست ها": null
      },
      "id": "AAFlx"
    },
    {
      "type": "Feature",
      "geometry": {
        "type": "Polygon",
        "coordinates": [
          [
            [
              50.702673550433644,
              35.99010742890782
            ],
            [
              50.70254450577453,
              35.99001102266037
            ],
            [
              50.70291915140972,
              35.98967981352134
            ],
            [
              50.70304819599101,
              35.98977621937074
            ],
            [
              50.702673550433644,
              35.99010742890782
            ]
          ]
        ]
      },
      "properties": {
        "id": null,
        "شماره بلوک": "N13",
        "درصد پیشرفت فیزیکی": null,
        "درصد انحراف نسبت به برنامه زمان بندی": null,
        "میزان پیشرفت مالی": null,
        "گزارش مرحله ای": null,
        "تعداد واحد": 0,
        "شماره پرونده حقوقی": null,
        "شماره پروانه شهرداری": "1400/17273/ص ",
        "تاریخ شروع پروژه": "1400-07-27",
        "مدت قرارداد (ماه)": "24",
        "تاریخ پایان پروژه": "1404-07-27",
        "مدت زمان باقیمانده": 87,
        "تاریخ تحویل": null,
        "نام پیمانکار": "نیک پی سرای ایرانیان",
        "محیط": 131.39998604714282,
        "مساحت": 788.4237202219665,
        "پیوست ها": null
      },
      "id": "vJd2A"
    },
    {
      "type": "Feature",
      "geometry": {
        "type": "Polygon",
        "coordinates": [
          [
            [
              50.70220694210923,
              35.990519936400666
            ],
            [
              50.702077899384555,
              35.9904235296625
            ],
            [
              50.7024525489225,
              35.99009232202181
            ],
            [
              50.702581593606915,
              35.990188726716106
            ],
            [
              50.70220694210923,
              35.990519936400666
            ]
          ]
        ]
      },
      "properties": {
        "id": null,
        "شماره بلوک": "N12",
        "درصد پیشرفت فیزیکی": null,
        "درصد انحراف نسبت به برنامه زمان بندی": null,
        "میزان پیشرفت مالی": null,
        "گزارش مرحله ای": null,
        "تعداد واحد": 0,
        "شماره پرونده حقوقی": null,
        "شماره پروانه شهرداری": "1400/17273/ص ",
        "تاریخ شروع پروژه": "1400-07-27",
        "مدت قرارداد (ماه)": "24",
        "تاریخ پایان پروژه": "1404-07-27",
        "مدت زمان باقیمانده": null,
        "تاریخ تحویل": null,
        "نام پیمانکار": "نیک پی سرای ایرانیان",
        "محیط": 131.39998604826155,
        "مساحت": 788.4193096198142,
        "پیوست ها": null
      },
      "id": "ynzjr"
    },
    {
      "type": "Feature",
      "geometry": {
        "type": "Polygon",
        "coordinates": [
          [
            [
              50.70357058421245,
              35.989554159702834
            ],
            [
              50.70369962938776,
              35.98965056485632
            ],
            [
              50.703324985105404,
              35.989981776445234
            ],
            [
              50.70319594188358,
              35.989885370898726
            ],
            [
              50.70357058421245,
              35.989554159702834
            ]
          ]
        ]
      },
      "properties": {
        "id": null,
        "شماره بلوک": "N11",
        "درصد پیشرفت فیزیکی": null,
        "درصد انحراف نسبت به برنامه زمان بندی": null,
        "میزان پیشرفت مالی": null,
        "گزارش مرحله ای": null,
        "تعداد واحد": 0,
        "شماره پرونده حقوقی": null,
        "شماره پروانه شهرداری": "1400/17273/ص ",
        "تاریخ شروع پروژه": "1400-07-27",
        "مدت قرارداد (ماه)": "24",
        "تاریخ پایان پروژه": "1404-07-27",
        "مدت زمان باقیمانده": null,
        "تاریخ تحویل": null,
        "نام پیمانکار": "نیک پی سرای ایرانیان",
        "محیط": 131.39997437612567,
        "مساحت": 788.4213232267648,
        "پیوست ها": null
      },
      "id": "lqJox"
    },
    {
      "type": "Feature",
      "geometry": {
        "type": "Polygon",
        "coordinates": [
          [
            [
              50.70332423440418,
              35.989982439887264
            ],
            [
              50.702949589005044,
              35.99031365247693
            ],
            [
              50.70282054367389,
              35.99021724652655
            ],
            [
              50.703195191859315,
              35.98988603434163
            ],
            [
              50.70332423440418,
              35.989982439887264
            ]
          ]
        ]
      },
      "properties": {
        "id": null,
        "شماره بلوک": "N10",
        "درصد پیشرفت فیزیکی": null,
        "درصد انحراف نسبت به برنامه زمان بندی": null,
        "میزان پیشرفت مالی": null,
        "گزارش مرحله ای": null,
        "تعداد واحد": 0,
        "شماره پرونده حقوقی": null,
        "شماره پروانه شهرداری": "1400/17273/ص ",
        "تاریخ شروع پروژه": "1400-07-27",
        "مدت قرارداد (ماه)": "24",
        "تاریخ پایان پروژه": "1404-07-27",
        "مدت زمان باقیمانده": null,
        "تاریخ تحویل": null,
        "نام پیمانکار": "نیک پی سرای ایرانیان",
        "محیط": 131.40033096360096,
        "مساحت": 788.4233720041811,
        "پیوست ها": null
      },
      "id": "tsHv4"
    },
    {
      "type": "Feature",
      "geometry": {
        "type": "Polygon",
        "coordinates": [
          [
            [
              50.70248297616877,
              35.990726155515674
            ],
            [
              50.7023539307407,
              35.99062974906952
            ],
            [
              50.70272858079553,
              35.9902985389282
            ],
            [
              50.70285762546865,
              35.99039494497461
            ],
            [
              50.70248297616877,
              35.990726155515674
            ]
          ]
        ]
      },
      "properties": {
        "id": null,
        "شماره بلوک": "N9",
        "درصد پیشرفت فیزیکی": null,
        "درصد انحراف نسبت به برنامه زمان بندی": null,
        "میزان پیشرفت مالی": null,
        "گزارش مرحله ای": null,
        "تعداد واحد": 0,
        "شماره پرونده حقوقی": null,
        "شماره پروانه شهرداری": "1400/17273/ص ",
        "تاریخ شروع پروژه": "1400-07-27",
        "مدت قرارداد (ماه)": "24",
        "تاریخ پایان پروژه": "1404-07-27",
        "مدت زمان باقیمانده": null,
        "تاریخ تحویل": null,
        "نام پیمانکار": "نیک پی سرای ایرانیان",
        "محیط": 131.4002525150273,
        "مساحت": 788.4250570721924,
        "پیوست ها": null
      },
      "id": "9lkdw"
    },
    {
      "type": "Feature",
      "geometry": {
        "type": "Polygon",
        "coordinates": [
          [
            [
              50.7036560999211,
              35.99013930971172
            ],
            [
              50.70352705603869,
              35.990042904520806
            ],
            [
              50.70390169774656,
              35.98971169064576
            ],
            [
              50.70403074155316,
              35.98980809488837
            ],
            [
              50.7036560999211,
              35.99013930971172
            ]
          ]
        ]
      },
      "properties": {
        "id": null,
        "شماره بلوک": "N8",
        "درصد پیشرفت فیزیکی": null,
        "درصد انحراف نسبت به برنامه زمان بندی": null,
        "میزان پیشرفت مالی": null,
        "گزارش مرحله ای": null,
        "تعداد واحد": 0,
        "شماره پرونده حقوقی": null,
        "شماره پروانه شهرداری": "1400/17273/ص ",
        "تاریخ شروع پروژه": "1400-07-27",
        "مدت قرارداد (ماه)": "24",
        "تاریخ پایان پروژه": "1404-07-27",
        "مدت زمان باقیمانده": null,
        "تاریخ تحویل": null,
        "نام پیمانکار": "نیک پی سرای ایرانیان",
        "محیط": 131.39998993763112,
        "مساحت": 788.4184394199401,
        "پیوست ها": null
      },
      "id": "JDd0J"
    },
    {
      "type": "Feature",
      "geometry": {
        "type": "Polygon",
        "coordinates": [
          [
            [
              50.703225635814064,
              35.99051986772338
            ],
            [
              50.70309659184222,
              35.9904234620751
            ],
            [
              50.70347123782149,
              35.99009225123479
            ],
            [
              50.703600283069726,
              35.990188656488364
            ],
            [
              50.703225635814064,
              35.99051986772338
            ]
          ]
        ]
      },
      "properties": {
        "id": null,
        "شماره بلوک": "N7",
        "درصد پیشرفت فیزیکی": "67.28",
        "درصد انحراف نسبت به برنامه زمان بندی": "-45.2",
        "میزان پیشرفت مالی": "۳۴۶.۵۶۴.۶۵۴.۷۸۲",
        "گزارش مرحله ای": "نازک کاری",
        "تعداد واحد": 48,
        "شماره پرونده حقوقی": null,
        "شماره پروانه شهرداری": "1400/17273/ص ",
        "تاریخ شروع پروژه": "1400-07-27",
        "مدت قرارداد (ماه)": "24",
        "تاریخ پایان پروژه": "1404-07-27",
        "مدت زمان باقیمانده": null,
        "تاریخ تحویل": null,
        "نام پیمانکار": "نیک پی سرای ایرانیان",
        "محیط": 131.39997048563868,
        "مساحت": 788.4205242283642,
        "پیوست ها": "<div dir=\"rtl\"><a href= \"https://drive.google.com/file/d/1RI8DRSnLr5ZFjB3JJNS7f9IT7-nnqZ1r/view?usp=drive_link\" target=\"_blank\" style=\"font-family: 'tahoma';\">عکس بلوک</br></a><a href= \"https://docs.google.com/spreadsheets/d/1lwMLql1PRiYR7FqYhx6NyyoEqyteqdbZ9dx1jLTENDc/edit?usp=drive_link\" target=\"_blank\" style=\"font-family: 'tahoma';\">نقشه معماری</br></a><a href= \"https://docs.google.com/spreadsheets/d/1lwMLql1PRiYR7FqYhx6NyyoEqyteqdbZ9dx1jLTENDc/edit?usp=drive_link\" target=\"_blank\" style=\"font-family: 'tahoma';\">نقشه سازه</br></a><a href= \"https://drive.google.com/file/d/1RI8DRSnLr5ZFjB3JJNS7f9IT7-nnqZ1r/view?usp=drive_link\" target=\"_blank\" style=\"font-family: 'tahoma';\">نقشه برق</br></a><a href= \"https://docs.google.com/spreadsheets/d/1lwMLql1PRiYR7FqYhx6NyyoEqyteqdbZ9dx1jLTENDc/edit?usp=drive_link\" target=\"_blank\" style=\"font-family: 'tahoma';\">نقشه مکانیک</br></a><a href= \"https://docs.google.com/spreadsheets/d/1lwMLql1PRiYR7FqYhx6NyyoEqyteqdbZ9dx1jLTENDc/edit?usp=drive_link\" target=\"_blank\" style=\"font-family: 'tahoma';\">نقشه آزمایشگاه</br></a></div>"
      },
      "id": "HZF36"
    },
    {
      "type": "Feature",
      "geometry": {
        "type": "Polygon",
        "coordinates": [
          [
            [
              50.702759021098075,
              35.99093238667525
            ],
            [
              50.70262997702929,
              35.99083598053121
            ],
            [
              50.7030046262426,
              35.99050476898642
            ],
            [
              50.70313367226492,
              35.990601174737435
            ],
            [
              50.702759021098075,
              35.99093238667525
            ]
          ]
        ]
      },
      "properties": {
        "id": null,
        "شماره بلوک": "N6",
        "درصد پیشرفت فیزیکی": null,
        "درصد انحراف نسبت به برنامه زمان بندی": null,
        "میزان پیشرفت مالی": null,
        "گزارش مرحله ای": null,
        "تعداد واحد": 0,
        "شماره پرونده حقوقی": null,
        "شماره پروانه شهرداری": "1400/17273/ص ",
        "تاریخ شروع پروژه": "1400-07-27",
        "مدت قرارداد (ماه)": "24",
        "تاریخ پایان پروژه": "1404-07-27",
        "مدت زمان باقیمانده": null,
        "تاریخ تحویل": null,
        "نام پیمانکار": "نیک پی سرای ایرانیان",
        "محیط": 131.40033485379277,
        "مساحت": 788.4241710100323,
        "پیوست ها": null
      },
      "id": "ljNzy"
    },
    {
      "type": "Feature",
      "geometry": {
        "type": "Polygon",
        "coordinates": [
          [
            [
              50.70394390170273,
              35.990335132093236
            ],
            [
              50.70381485714456,
              35.99023872886273
            ],
            [
              50.70418949926462,
              35.98990751410014
            ],
            [
              50.70431854509298,
              35.990003918586794
            ],
            [
              50.70394390170273,
              35.990335132093236
            ]
          ]
        ]
      },
      "properties": {
        "id": null,
        "شماره بلوک": "N5",
        "درصد پیشرفت فیزیکی": null,
        "درصد انحراف نسبت به برنامه زمان بندی": null,
        "میزان پیشرفت مالی": null,
        "گزارش مرحله ای": null,
        "تعداد واحد": 0,
        "شماره پرونده حقوقی": null,
        "شماره پروانه شهرداری": "1400/17273/ص ",
        "تاریخ شروع پروژه": "1400-07-27",
        "مدت قرارداد (ماه)": "24",
        "تاریخ پایان پروژه": "1404-07-27",
        "مدت زمان باقیمانده": null,
        "تاریخ تحویل": null,
        "نام پیمانکار": "نیک پی سرای ایرانیان",
        "محیط": 131.39998215694092,
        "مساحت": 788.4185106158257,
        "پیوست ها": null
      },
      "id": "NvxNb"
    },
    {
      "type": "Feature",
      "geometry": {
        "type": "Polygon",
        "coordinates": [
          [
            [
              50.703501686083776,
              35.990726084540476
            ],
            [
              50.703372639408514,
              35.99062967918425
            ],
            [
              50.70374728455028,
              35.99029846583993
            ],
            [
              50.70387633114767,
              35.9903948707981
            ],
            [
              50.703501686083776,
              35.990726084540476
            ]
          ]
        ]
      },
      "properties": {
        "id": null,
        "شماره بلوک": "N4",
        "درصد پیشرفت فیزیکی": null,
        "درصد انحراف نسبت به برنامه زمان بندی": null,
        "میزان پیشرفت مالی": null,
        "گزارش مرحله ای": null,
        "تعداد واحد": 0,
        "شماره پرونده حقوقی": null,
        "شماره پروانه شهرداری": "1400/17273/ص ",
        "تاریخ شروع پروژه": "1400-07-27",
        "مدت قرارداد (ماه)": "24",
        "تاریخ پایان پروژه": "1404-07-27",
        "مدت زمان باقیمانده": 17,
        "تاریخ تحویل": null,
        "نام پیمانکار": "نیک پی سرای ایرانیان",
        "محیط": 131.4002564056258,
        "مساحت": 788.4258560761809,
        "پیوست ها": null
      },
      "id": "j0dKQ"
    },
    {
      "type": "Feature",
      "geometry": {
        "type": "Polygon",
        "coordinates": [
          [
            [
              50.70303506277265,
              35.99113860453108
            ],
            [
              50.702906018025615,
              35.99104220033497
            ],
            [
              50.703280667070366,
              35.99071098848898
            ],
            [
              50.703409713766796,
              35.990807393392636
            ],
            [
              50.70303506277265,
              35.99113860453108
            ]
          ]
        ]
      },
      "properties": {
        "id": null,
        "شماره بلوک": "N3",
        "درصد پیشرفت فیزیکی": null,
        "درصد انحراف نسبت به برنامه زمان بندی": null,
        "میزان پیشرفت مالی": null,
        "گزارش مرحله ای": null,
        "تعداد واحد": 0,
        "شماره پرونده حقوقی": null,
        "شماره پروانه شهرداری": "1400/17273/ص ",
        "تاریخ شروع پروژه": "1400-07-27",
        "مدت قرارداد (ماه)": "24",
        "تاریخ پایان پروژه": "1404-07-27",
        "مدت زمان باقیمانده": 52,
        "تاریخ تحویل": null,
        "نام پیمانکار": "نیک پی سرای ایرانیان",
        "محیط": 131.39998993808894,
        "مساحت": 788.4186384174973,
        "پیوست ها": null
      },
      "id": "mYB0R"
    },
    {
      "type": "Feature",
      "geometry": {
        "type": "Polygon",
        "coordinates": [
          [
            [
              50.70429192929486,
              35.990477720439856
            ],
            [
              50.704162882054426,
              35.99038131592705
            ],
            [
              50.70453752475392,
              35.99005010173607
            ],
            [
              50.70466656988513,
              35.99014650584581
            ],
            [
              50.70429192929486,
              35.990477720439856
            ]
          ]
        ]
      },
      "properties": {
        "id": null,
        "شماره بلوک": "N2",
        "درصد پیشرفت فیزیکی": null,
        "درصد انحراف نسبت به برنامه زمان بندی": null,
        "میزان پیشرفت مالی": null,
        "گزارش مرحله ای": null,
        "تعداد واحد": 0,
        "شماره پرونده حقوقی": null,
        "شماره پروانه شهرداری": "1400/17273/ص ",
        "تاریخ شروع پروژه": "1400-07-27",
        "مدت قرارداد (ماه)": "24",
        "تاریخ پایان پروژه": "1404-07-27",
        "مدت زمان باقیمانده": null,
        "تاریخ تحویل": null,
        "نام پیمانکار": "نیک پی سرای ایرانیان",
        "محیط": 131.39997437612567,
        "مساحت": 788.4213232267648,
        "پیوست ها": null
      },
      "id": "4eJIQ"
    },
    {
      "type": "Feature",
      "geometry": {
        "type": "Polygon",
        "coordinates": [
          [
            [
              50.70403064505407,
              35.99070823347216
            ],
            [
              50.7039015977601,
              35.99061182868174
            ],
            [
              50.7040907963246,
              35.990444563811785
            ],
            [
              50.70421984358129,
              35.9905409678509
            ],
            [
              50.70403064505407,
              35.99070823347216
            ]
          ]
        ]
      },
      "properties": {
        "id": null,
        "شماره بلوک": "N1",
        "درصد پیشرفت فیزیکی": null,
        "درصد انحراف نسبت به برنامه زمان بندی": null,
        "میزان پیشرفت مالی": null,
        "گزارش مرحله ای": null,
        "تعداد واحد": 0,
        "شماره پرونده حقوقی": null,
        "شماره پروانه شهرداری": "1400/17273/ص ",
        "تاریخ شروع پروژه": "1400-07-27",
        "مدت قرارداد (ماه)": "24",
        "تاریخ پایان پروژه": "1404-07-27",
        "مدت زمان باقیمانده": null,
        "تاریخ تحویل": null,
        "نام پیمانکار": "نیک پی سرای ایرانیان",
        "محیط": 81.99991062004466,
        "مساحت": 398.16015628539026,
        "پیوست ها": null
      },
      "id": "QpPex"
    }
  ]
}