{
  "type": "FeatureCollection",
  "features": [
    {
      "type": "Feature",
      "geometry": {
        "type": "Polygon",
        "coordinates": [
          [
            [
              50.70212075801329,
              35.98882459048667
            ],
            [
              50.702504433000385,
              35.98903806601922
            ],
            [
              50.70429356339794,
              35.989849522085024
            ],
            [
              50.70462399584336,
              35.9900398960564
            ],
            [
              50.70465108440775,
              35.99006174244486
            ],
            [
              50.70467491420603,
              35.99008596756173
            ],
            [
              50.70469517130055,
              35.99011225226455
            ],
            [
              50.704711588819755,
              35.99014025027743
            ],
            [
              50.70472395047412,
              35.990169592752906
            ],
            [
              50.70473209340572,
              35.990199893131084
            ],
            [
              50.70473591033399,
              35.990230752232115
            ],
            [
              50.70473535096925,
              35.990261763515036
            ],
            [
              50.704730427837774,
              35.990292517864255
            ],
            [
              50.70472120261748,
              35.99032261154343
            ],
            [
              50.704707796731064,
              35.99035164844271
            ],
            [
              50.70469038663004,
              35.990379246361826
            ],
            [
              50.704669201472356,
              35.99040504204075
            ],
            [
              50.70464452010625,
              35.9904286959413
            ],
            [
              50.70461666740006,
              35.99044989671636
            ],
            [
              50.7045860099661,
              35.99046836530814
            ],
            [
              50.70320543555519,
              35.99120416428615
            ],
            [
              50.70316457616673,
              35.99121083384005
            ],
            [
              50.70312317813899,
              35.99121125321366
            ],
            [
              50.703082192020815,
              35.991205412777674
            ],
            [
              50.70304255890313,
              35.991193446635556
            ],
            [
              50.70108985090588,
              35.989738269522256
            ],
            [
              50.70212075801329,
              35.98882459048667
            ]
          ]
        ]
      },
      "properties": {
        "id": 1,
        "شناسه": 1,
        "نام پروژه": "پروژه نیما",
        "پیمانکار": "نیک پی سرای ایرانیان",
        "تعداد بلوک": 21,
        "شماره پروانه شهرداری": "12723/1400/ص",
        "تاریخ شروع پروژه": "1400-07-27",
        "مدت قرارداد (ماه)": "24",
        "تاریخ پایان پروژه": "1402-07-27",
        "مدت باقیمانده": "0",
        "محیط": 858.3815644291063,
        "مساحت": 44729.468502888805,
        "صورت وضعیت ها": "<a href=  \"https://docs.google.com/spreadsheets/d/1a2PxunrbgHNcRM6ovTWUFGyrKbWP2SSX/edit?usp=drive_link&ouid=111809335695775432331&rtpof=true&sd=true\"  target=\"_blank\" style=\"font-family: 'tahoma';\">صورت وضعیت ها</br></a></div>",
        "اطلاعات تفصیلی بلوک ها": "<a href=  \"https://docs.google.com/spreadsheets/d/1a2PxunrbgHNcRM6ovTWUFGyrKbWP2SSX/edit?usp=drive_link&ouid=111809335695775432331&rtpof=true&sd=true\"  target=\"_blank\" style=\"font-family: 'tahoma';\">اطلاعات تفصیلی بلوک ها</br></a></div>"
      },
      "id": "UdFHs"
    }
  ]
}